[{"OBJECT_NAME":"STARLINK-30494","OBJECT_ID":"2023-151G","EPOCH":"2026-03-09T08:39:06.366240","MEAN_MOTION":15.28417441,"ECCENTRICITY":0.00011553,"INCLINATION":43.0027,"RA_OF_ASC_NODE":192.4566,"ARG_OF_PERICENTER":241.5536,"MEAN_ANOMALY":118.52,"EPHEMERIS_TYPE":0,"CLASSIFICATION_TYPE":"U","NORAD_CAT_ID":57970,"ELEMENT_SET_NO":999,"REV_AT_EPOCH":13740,"BSTAR":-3.569111e-5,"MEAN_MOTION_DOT":-1.272e-5,"MEAN_MOTION_DDOT":0},{"OBJECT_NAME":"STARLINK-33706","OBJECT_ID":"2025-070B","EPOCH":"2026-03-09T13:34:40.616832","MEAN_MOTION":15.27573082,"ECCENTRICITY":0.000198,"INCLINATION":42.999,"RA_OF_ASC_NODE":260.8327,"ARG_OF_PERICENTER":301.9874,"MEAN_ANOMALY":58.0785,"EPHEMERIS_TYPE":0,"CLASSIFICATION_TYPE":"U","NORAD_CAT_ID":63461,"ELEMENT_SET_NO":999,"REV_AT_EPOCH":5295,"BSTAR":0.0012348136,"MEAN_MOTION_DOT":0.00033867,"MEAN_MOTION_DDOT":0}]
